CCSDS_OMM_VERS = 2.0
CREATION_DATE  = 
ORIGINATOR     = 

OBJECT_NAME    = STARLINK-35962
OBJECT_ID      = 2025-265C
CENTER_NAME    = EARTH
REF_FRAME      = TEME
TIME_SYSTEM    = UTC
MEAN_ELEMENT_THEORY = SGP/SGP4

EPOCH          = 2025-12-05T22:00:03.000096
MEAN_MOTION    = 15.67993967
ECCENTRICITY   = .00017015
INCLINATION    = 43.0001
RA_OF_ASC_NODE = 94.2227
ARG_OF_PERICENTER = 285.0369
MEAN_ANOMALY   = 116.9083

EPHEMERIS_TYPE = 0
CLASSIFICATION_TYPE = U
NORAD_CAT_ID   = 66518
ELEMENT_SET_NO = 999
REV_AT_EPOCH   = 389
BSTAR          = -.19355799E-1
MEAN_MOTION_DOT = -.1950729E-1
MEAN_MOTION_DDOT = 0

CCSDS_OMM_VERS = 2.0
CREATION_DATE  = 
ORIGINATOR     = 

OBJECT_NAME    = STARLINK-35931
OBJECT_ID      = 2025-265D
CENTER_NAME    = EARTH
REF_FRAME      = TEME
TIME_SYSTEM    = UTC
MEAN_ELEMENT_THEORY = SGP/SGP4

EPOCH          = 2025-12-05T22:00:03.000096
MEAN_MOTION    = 15.67992073
ECCENTRICITY   = .00017435
INCLINATION    = 43.0002
RA_OF_ASC_NODE = 94.2176
ARG_OF_PERICENTER = 286.9090
MEAN_ANOMALY   = 116.9537

EPHEMERIS_TYPE = 0
CLASSIFICATION_TYPE = U
NORAD_CAT_ID   = 66519
ELEMENT_SET_NO = 999
REV_AT_EPOCH   = 389
BSTAR          = -.19328026E-1
MEAN_MOTION_DOT = -.1948155E-1
MEAN_MOTION_DDOT = 0

CCSDS_OMM_VERS = 2.0
CREATION_DATE  = 
ORIGINATOR     = 

OBJECT_NAME    = STARLINK-35952
OBJECT_ID      = 2025-265E
CENTER_NAME    = EARTH
REF_FRAME      = TEME
TIME_SYSTEM    = UTC
MEAN_ELEMENT_THEORY = SGP/SGP4

EPOCH          = 2025-12-05T22:00:03.000096
MEAN_MOTION    = 15.67990835
ECCENTRICITY   = .00017174
INCLINATION    = 43.0001
RA_OF_ASC_NODE = 94.2126
ARG_OF_PERICENTER = 287.9130
MEAN_ANOMALY   = 117.8684

EPHEMERIS_TYPE = 0
CLASSIFICATION_TYPE = U
NORAD_CAT_ID   = 66520
ELEMENT_SET_NO = 999
REV_AT_EPOCH   = 389
BSTAR          = -.19328616E-1
MEAN_MOTION_DOT = -.1948099E-1
MEAN_MOTION_DDOT = 0

CCSDS_OMM_VERS = 2.0
CREATION_DATE  = 
ORIGINATOR     = 

OBJECT_NAME    = STARLINK-35915
OBJECT_ID      = 2025-265F
CENTER_NAME    = EARTH
REF_FRAME      = TEME
TIME_SYSTEM    = UTC
MEAN_ELEMENT_THEORY = SGP/SGP4

EPOCH          = 2025-12-05T22:00:03.000096
MEAN_MOTION    = 15.67993961
ECCENTRICITY   = .00016346
INCLINATION    = 43.0001
RA_OF_ASC_NODE = 94.2077
ARG_OF_PERICENTER = 287.7525
MEAN_ANOMALY   = 119.9442

EPHEMERIS_TYPE = 0
CLASSIFICATION_TYPE = U
NORAD_CAT_ID   = 66521
ELEMENT_SET_NO = 999
REV_AT_EPOCH   = 389
BSTAR          = -.19365226E-1
MEAN_MOTION_DOT = -.1951515E-1
MEAN_MOTION_DDOT = 0

CCSDS_OMM_VERS = 2.0
CREATION_DATE  = 
ORIGINATOR     = 

OBJECT_NAME    = STARLINK-35946
OBJECT_ID      = 2025-265G
CENTER_NAME    = EARTH
REF_FRAME      = TEME
TIME_SYSTEM    = UTC
MEAN_ELEMENT_THEORY = SGP/SGP4

EPOCH          = 2025-12-05T22:00:03.000096
MEAN_MOTION    = 15.67992112
ECCENTRICITY   = .00017045
INCLINATION    = 43.0001
RA_OF_ASC_NODE = 94.2029
ARG_OF_PERICENTER = 288.1920
MEAN_ANOMALY   = 121.4213

EPHEMERIS_TYPE = 0
CLASSIFICATION_TYPE = U
NORAD_CAT_ID   = 66522
ELEMENT_SET_NO = 999
REV_AT_EPOCH   = 389
BSTAR          = -.1932463E-1
MEAN_MOTION_DOT = -.1947825E-1
MEAN_MOTION_DDOT = 0

CCSDS_OMM_VERS = 2.0
CREATION_DATE  = 
ORIGINATOR     = 

OBJECT_NAME    = STARLINK-35969
OBJECT_ID      = 2025-265H
CENTER_NAME    = EARTH
REF_FRAME      = TEME
TIME_SYSTEM    = UTC
MEAN_ELEMENT_THEORY = SGP/SGP4

EPOCH          = 2025-12-05T22:00:03.000096
MEAN_MOTION    = 15.67993801
ECCENTRICITY   = .00016063
INCLINATION    = 43.0003
RA_OF_ASC_NODE = 94.1981
ARG_OF_PERICENTER = 285.9263
MEAN_ANOMALY   = 125.6034

EPHEMERIS_TYPE = 0
CLASSIFICATION_TYPE = U
NORAD_CAT_ID   = 66523
ELEMENT_SET_NO = 999
REV_AT_EPOCH   = 389
BSTAR          = -.19341241E-1
MEAN_MOTION_DOT = -.1949348E-1
MEAN_MOTION_DDOT = 0

CCSDS_OMM_VERS = 2.0
CREATION_DATE  = 
ORIGINATOR     = 

OBJECT_NAME    = STARLINK-35687
OBJECT_ID      = 2025-265J
CENTER_NAME    = EARTH
REF_FRAME      = TEME
TIME_SYSTEM    = UTC
MEAN_ELEMENT_THEORY = SGP/SGP4

EPOCH          = 2025-12-05T22:00:03.000096
MEAN_MOTION    = 15.67992555
ECCENTRICITY   = .00016689
INCLINATION    = 43.0002
RA_OF_ASC_NODE = 94.1929
ARG_OF_PERICENTER = 288.6743
MEAN_ANOMALY   = 124.7738

EPHEMERIS_TYPE = 0
CLASSIFICATION_TYPE = U
NORAD_CAT_ID   = 66524
ELEMENT_SET_NO = 999
REV_AT_EPOCH   = 389
BSTAR          = -.19343694E-1
MEAN_MOTION_DOT = -.1949526E-1
MEAN_MOTION_DDOT = 0

CCSDS_OMM_VERS = 2.0
CREATION_DATE  = 
ORIGINATOR     = 

OBJECT_NAME    = STARLINK-35975
OBJECT_ID      = 2025-265K
CENTER_NAME    = EARTH
REF_FRAME      = TEME
TIME_SYSTEM    = UTC
MEAN_ELEMENT_THEORY = SGP/SGP4

EPOCH          = 2025-12-05T22:00:03.000096
MEAN_MOTION    = 15.67994099
ECCENTRICITY   = .00016188
INCLINATION    = 43.0000
RA_OF_ASC_NODE = 94.1886
ARG_OF_PERICENTER = 285.8351
MEAN_ANOMALY   = 129.5304

EPHEMERIS_TYPE = 0
CLASSIFICATION_TYPE = U
NORAD_CAT_ID   = 66525
ELEMENT_SET_NO = 999
REV_AT_EPOCH   = 389
BSTAR          = -.19368682E-1
MEAN_MOTION_DOT = -.1951821E-1
MEAN_MOTION_DDOT = 0

CCSDS_OMM_VERS = 2.0
CREATION_DATE  = 
ORIGINATOR     = 

OBJECT_NAME    = STARLINK-35932
OBJECT_ID      = 2025-265L
CENTER_NAME    = EARTH
REF_FRAME      = TEME
TIME_SYSTEM    = UTC
MEAN_ELEMENT_THEORY = SGP/SGP4

EPOCH          = 2025-12-05T22:00:03.000096
MEAN_MOTION    = 15.67990734
ECCENTRICITY   = .00016356
INCLINATION    = 43.0002
RA_OF_ASC_NODE = 94.1837
ARG_OF_PERICENTER = 288.3359
MEAN_ANOMALY   = 128.9503

EPHEMERIS_TYPE = 0
CLASSIFICATION_TYPE = U
NORAD_CAT_ID   = 66526
ELEMENT_SET_NO = 999
REV_AT_EPOCH   = 378
BSTAR          = -.19351018E-1
MEAN_MOTION_DOT = -.1950022E-1
MEAN_MOTION_DDOT = 0

CCSDS_OMM_VERS = 2.0
CREATION_DATE  = 
ORIGINATOR     = 

OBJECT_NAME    = STARLINK-35935
OBJECT_ID      = 2025-265M
CENTER_NAME    = EARTH
REF_FRAME      = TEME
TIME_SYSTEM    = UTC
MEAN_ELEMENT_THEORY = SGP/SGP4

EPOCH          = 2025-12-05T22:00:03.000096
MEAN_MOTION    = 15.67994109
ECCENTRICITY   = .00015574
INCLINATION    = 43.0001
RA_OF_ASC_NODE = 94.1791
ARG_OF_PERICENTER = 288.1171
MEAN_ANOMALY   = 131.0823

EPHEMERIS_TYPE = 0
CLASSIFICATION_TYPE = U
NORAD_CAT_ID   = 66527
ELEMENT_SET_NO = 999
REV_AT_EPOCH   = 389
BSTAR          = -.19372982E-1
MEAN_MOTION_DOT = -.1952156E-1
MEAN_MOTION_DDOT = 0

CCSDS_OMM_VERS = 2.0
CREATION_DATE  = 
ORIGINATOR     = 

OBJECT_NAME    = STARLINK-35928
OBJECT_ID      = 2025-265N
CENTER_NAME    = EARTH
REF_FRAME      = TEME
TIME_SYSTEM    = UTC
MEAN_ELEMENT_THEORY = SGP/SGP4

EPOCH          = 2025-12-05T22:00:03.000096
MEAN_MOTION    = 15.67991899
ECCENTRICITY   = .00016535
INCLINATION    = 43.0003
RA_OF_ASC_NODE = 94.1742
ARG_OF_PERICENTER = 288.8376
MEAN_ANOMALY   = 132.2806

EPHEMERIS_TYPE = 0
CLASSIFICATION_TYPE = U
NORAD_CAT_ID   = 66528
ELEMENT_SET_NO = 999
REV_AT_EPOCH   = 389
BSTAR          = -.19352561E-1
MEAN_MOTION_DOT = -.1950256E-1
MEAN_MOTION_DDOT = 0

CCSDS_OMM_VERS = 2.0
CREATION_DATE  = 
ORIGINATOR     = 

OBJECT_NAME    = STARLINK-35933
OBJECT_ID      = 2025-265P
CENTER_NAME    = EARTH
REF_FRAME      = TEME
TIME_SYSTEM    = UTC
MEAN_ELEMENT_THEORY = SGP/SGP4

EPOCH          = 2025-12-05T22:00:03.000096
MEAN_MOTION    = 15.67993156
ECCENTRICITY   = .0001541
INCLINATION    = 43.0003
RA_OF_ASC_NODE = 94.1691
ARG_OF_PERICENTER = 286.8595
MEAN_ANOMALY   = 136.1745

EPHEMERIS_TYPE = 0
CLASSIFICATION_TYPE = U
NORAD_CAT_ID   = 66529
ELEMENT_SET_NO = 999
REV_AT_EPOCH   = 389
BSTAR          = -.19357042E-1
MEAN_MOTION_DOT = -.1950657E-1
MEAN_MOTION_DDOT = 0

CCSDS_OMM_VERS = 2.0
CREATION_DATE  = 
ORIGINATOR     = 

OBJECT_NAME    = STARLINK-35961
OBJECT_ID      = 2025-265Q
CENTER_NAME    = EARTH
REF_FRAME      = TEME
TIME_SYSTEM    = UTC
MEAN_ELEMENT_THEORY = SGP/SGP4

EPOCH          = 2025-12-05T22:00:03.000096
MEAN_MOTION    = 15.67963524
ECCENTRICITY   = .00014074
INCLINATION    = 43.0002
RA_OF_ASC_NODE = 94.1645
ARG_OF_PERICENTER = 288.5859
MEAN_ANOMALY   = 136.3873

EPHEMERIS_TYPE = 0
CLASSIFICATION_TYPE = U
NORAD_CAT_ID   = 66530
ELEMENT_SET_NO = 999
REV_AT_EPOCH   = 389
BSTAR          = -.19039148E-1
MEAN_MOTION_DOT = -.1920129E-1
MEAN_MOTION_DDOT = 0

CCSDS_OMM_VERS = 2.0
CREATION_DATE  = 
ORIGINATOR     = 

OBJECT_NAME    = STARLINK-35960
OBJECT_ID      = 2025-265R
CENTER_NAME    = EARTH
REF_FRAME      = TEME
TIME_SYSTEM    = UTC
MEAN_ELEMENT_THEORY = SGP/SGP4

EPOCH          = 2025-12-05T22:00:03.000096
MEAN_MOTION    = 15.67999190
ECCENTRICITY   = .00016058
INCLINATION    = 43.0002
RA_OF_ASC_NODE = 94.1593
ARG_OF_PERICENTER = 288.8611
MEAN_ANOMALY   = 138.0041

EPHEMERIS_TYPE = 0
CLASSIFICATION_TYPE = U
NORAD_CAT_ID   = 66531
ELEMENT_SET_NO = 999
REV_AT_EPOCH   = 389
BSTAR          = -.19442094E-1
MEAN_MOTION_DOT = -.1958703E-1
MEAN_MOTION_DDOT = 0

CCSDS_OMM_VERS = 2.0
CREATION_DATE  = 
ORIGINATOR     = 

OBJECT_NAME    = STARLINK-35914
OBJECT_ID      = 2025-265S
CENTER_NAME    = EARTH
REF_FRAME      = TEME
TIME_SYSTEM    = UTC
MEAN_ELEMENT_THEORY = SGP/SGP4

EPOCH          = 2025-12-05T22:00:03.000096
MEAN_MOTION    = 15.67990389
ECCENTRICITY   = .00016116
INCLINATION    = 43.0001
RA_OF_ASC_NODE = 94.1546
ARG_OF_PERICENTER = 289.4410
MEAN_ANOMALY   = 139.3456

EPHEMERIS_TYPE = 0
CLASSIFICATION_TYPE = U
NORAD_CAT_ID   = 66532
ELEMENT_SET_NO = 999
REV_AT_EPOCH   = 389
BSTAR          = -.19325089E-1
MEAN_MOTION_DOT = -.1947671E-1
MEAN_MOTION_DDOT = 0

